ONEWEB-0350             
1 49214U 21083AE  24199.96188184  .00000061  00000+0  13254-3 0  9998
2 49214  87.8925  99.3944 0001616  86.6888 273.4426 13.13467842139142
ONEWEB-0351             
1 49215U 21083AF  24200.55431364 -.00000390  00000+0 -99080-3 0  9996
2 49215  87.9207  53.4297 0000870  59.8793 300.2426 13.20769476145868
ONEWEB-0352             
1 49216U 21083AG  24199.79049717  .00000321  00000+0  84530-3 0  9993
2 49216  87.8927  99.4604 0001579  61.8728 298.2560 13.13471350139217
ONEWEB-0354             
1 49217U 21083AH  24199.59486446  .00000014  00000+0  17403-5 0  9992
2 49217  87.9187  53.6111 0001513  90.5581 269.5725 13.20771406145771
ONEWEB-0355             
1 49218U 21083AJ  24199.97299558 -.00000163  00000+0 -48252-3 0  9992
2 49218  87.8927  99.4233 0001767  75.6171 284.5154 13.13469602139114
ONEWEB-0357             
1 49219U 21083AK  24199.66746416  .00000015  00000+0  40167-5 0  9992
2 49219  87.9184  53.6140 0001603  79.6422 280.4892 13.20771999144474
ONEWEB-0332             
1 49279U 21090A   24200.53350103  .00000116  00000+0  27780-3 0  9995
2 49279  87.8938  68.7103 0001963  71.1522 288.9821 13.14503583135794
ONEWEB-0347             
1 49280U 21090B   24199.65798912 -.00000009  00000+0 -55193-4 0  9994
2 49280  87.9188  53.6156 0002153  72.2470 287.8898 13.20772890138703
